[{"OBJECT_NAME":"KUIPER-00159","OBJECT_ID":"2026-030A","EPOCH":"2026-03-09T15:10:26.374944","MEAN_MOTION":15.35788737,"ECCENTRICITY":0.0005012,"INCLINATION":51.8841,"RA_OF_ASC_NODE":219.4438,"ARG_OF_PERICENTER":44.9181,"MEAN_ANOMALY":315.221,"EPHEMERIS_TYPE":0,"CLASSIFICATION_TYPE":"U","NORAD_CAT_ID":67764,"ELEMENT_SET_NO":999,"REV_AT_EPOCH":508,"BSTAR":0.00076096,"MEAN_MOTION_DOT":0.0002662,"MEAN_MOTION_DDOT":0},{"OBJECT_NAME":"DMSP 5D-2 F14 DEB","OBJECT_ID":"1997-012G","EPOCH":"2026-03-09T18:05:19.087296","MEAN_MOTION":15.2878374,"ECCENTRICITY":0.00491251,"INCLINATION":99.2047,"RA_OF_ASC_NODE":151.8456,"ARG_OF_PERICENTER":247.1908,"MEAN_ANOMALY":112.4133,"EPHEMERIS_TYPE":0,"CLASSIFICATION_TYPE":"U","NORAD_CAT_ID":62936,"ELEMENT_SET_NO":999,"REV_AT_EPOCH":6425,"BSTAR":0.05046686,"MEAN_MOTION_DOT":0.01624988,"MEAN_MOTION_DDOT":0}]
